ORBCOMM FM20            
1 25416U 98046D   26011.89797756  .00000823  00000+0  31795-3 0  9993
2 25416  44.9940 272.4972 0001493 321.7399  38.3343 14.37748195434299
ORBCOMM FM16            
1 25417U 98046E   26011.98149329  .00001107  00000+0  39586-3 0  9993
2 25417  44.9930 260.7928 0004348 285.6533  74.3836 14.39639819434336
ORBCOMM FM15            
1 25418U 98046F   26011.94119197  .00001056  00000+0  38276-3 0  9998
2 25418  44.9963 266.7690 0004187 287.2910  72.7480 14.39265646434311
ORBCOMM FM14            
1 25419U 98046G   26011.90251413  .00001107  00000+0  39554-3 0  9990
2 25419  44.9952 264.5446 0002884 287.8535  72.1999 14.39692248434283
ORBCOMM FM13            
1 25420U 98046H   26011.99894473  .00000883  00000+0  33377-3 0  9997
2 25420  44.9973 274.2016 0004817 262.5016  97.5285 14.38285705433295
ORBCOMM FM21            
1 25475U 98053A   26011.64134554  .00000805  00000+0  31130-3 0  9993
2 25475  45.0099   1.9614 0002517 254.5394 105.5176 14.37870590427248
ORBCOMM FM22            
1 25476U 98053B   26012.00352272  .00001143  00000+0  41226-3 0  9997
2 25476  45.0089 353.3027 0003492 233.3488 126.7040 14.39070132427344
ORBCOMM FM23            
1 25477U 98053C   26011.95877891  .00001046  00000+0  38836-3 0  9995
2 25477  45.0096   2.2401 0002957 236.5097 123.5469 14.38120686427445
